{"type": "FeatureCollection", "features": [{"type": "Feature", "properties": {"norad_id": 36828, "name": "BEIDOU-2 IGSO-1 (C06)", "group": "beidou", "lat": 54.17296437571977, "lon": -101.81388640362746, "alt_km": 35899.269903194836, "timestamp": "2025-12-21T03:56:51.102242+00:00", "meta": {"OBJECT_NAME": "BEIDOU-2 IGSO-1 (C06)", "OBJECT_ID": "2010-036A", "EPOCH": "2025-12-14T21:38:21.623424", "MEAN_MOTION": 1.00275796, "ECCENTRICITY": 0.00512569, "INCLINATION": 54.2866, "RA_OF_ASC_NODE": 164.6279, "ARG_OF_PERICENTER": 215.8888, "MEAN_ANOMALY": 135.7931, "EPHEMERIS_TYPE": 0, "CLASSIFICATION_TYPE": "U", "NORAD_CAT_ID": 36828, "ELEMENT_SET_NO": 999, "REV_AT_EPOCH": 5624, "BSTAR": 0, "MEAN_MOTION_DOT": -2.4e-07, "MEAN_MOTION_DDOT": 0}, "tle": {"line1": "1 36828U 10036A   25348.90163916 -.00000024  00000+0  00000+0 0  9999", "line2": "2 36828  54.2866 164.6279 0051256 215.8888 135.7931  1.00275796 56247"}}, "geometry": {"type": "Point", "coordinates": [-101.81388640362746, 54.17296437571977]}}, {"type": "Feature", "properties": {"norad_id": 37210, "name": "BEIDOU-2 G4 (C04)", "group": "beidou", "lat": -2.7813876491254694, "lon": -50.670805286173504, "alt_km": 35755.99540241846, "timestamp": "2025-12-21T03:56:51.102263+00:00", "meta": {"OBJECT_NAME": "BEIDOU-2 G4 (C04)", "OBJECT_ID": "2010-057A", "EPOCH": "2025-12-20T19:07:40.635840", "MEAN_MOTION": 1.0027204, "ECCENTRICITY": 0.0010417, "INCLINATION": 3.2035, "RA_OF_ASC_NODE": 69.909, "ARG_OF_PERICENTER": 192.8251, "MEAN_ANOMALY": 273.8953, "EPHEMERIS_TYPE": 0, "CLASSIFICATION_TYPE": "U", "NORAD_CAT_ID": 37210, "ELEMENT_SET_NO": 999, "REV_AT_EPOCH": 5550, "BSTAR": 0, "MEAN_MOTION_DOT": -9e-07, "MEAN_MOTION_DDOT": 0}, "tle": {"line1": "1 37210U 10057A   25354.79699810 -.00000090  00000+0  00000+0 0  9992", "line2": "2 37210   3.2035  69.9090 0010417 192.8251 273.8953  1.00272040 55500"}}, "geometry": {"type": "Point", "coordinates": [-50.670805286173504, -2.7813876491254694]}}, {"type": "Feature", "properties": {"norad_id": 37256, "name": "BEIDOU-2 IGSO-2 (C07)", "group": "beidou", "lat": -12.181517362920093, "lon": -97.20636730521477, "alt_km": 35907.99653875004, "timestamp": "2025-12-21T03:56:51.102276+00:00", "meta": {"OBJECT_NAME": "BEIDOU-2 IGSO-2 (C07)", "OBJECT_ID": "2010-068A", "EPOCH": "2025-12-20T17:09:56.640960", "MEAN_MOTION": 1.0028399, "ECCENTRICITY": 0.0048474, "INCLINATION": 47.8714, "RA_OF_ASC_NODE": 274.0511, "ARG_OF_PERICENTER": 216.3556, "MEAN_ANOMALY": 324.5526, "EPHEMERIS_TYPE": 0, "CLASSIFICATION_TYPE": "U", "NORAD_CAT_ID": 37256, "ELEMENT_SET_NO": 999, "REV_AT_EPOCH": 5500, "BSTAR": 0, "MEAN_MOTION_DOT": -1.89e-06, "MEAN_MOTION_DDOT": 0}, "tle": {"line1": "1 37256U 10068A   25354.71523890 -.00000189  00000+0  00000+0 0  9999", "line2": "2 37256  47.8714 274.0511 0048474 216.3556 324.5526  1.00283990 55000"}}, "geometry": {"type": "Point", "coordinates": [-97.20636730521477, -12.181517362920093]}}, {"type": "Feature", "properties": {"norad_id": 37384, "name": "BEIDOU-2 IGSO-3 (C08)", "group": "beidou", "lat": -30.32707525170788, "lon": -120.12630119032967, "alt_km": 35658.247346779215, "timestamp": "2025-12-21T03:56:51.102286+00:00", "meta": {"OBJECT_NAME": "BEIDOU-2 IGSO-3 (C08)", "OBJECT_ID": "2011-013A", "EPOCH": "2025-12-20T17:53:25.122624", "MEAN_MOTION": 1.00268991, "ECCENTRICITY": 0.0035343, "INCLINATION": 62.1536, "RA_OF_ASC_NODE": 41.8403, "ARG_OF_PERICENTER": 187.7861, "MEAN_ANOMALY": 235.669, "EPHEMERIS_TYPE": 0, "CLASSIFICATION_TYPE": "U", "NORAD_CAT_ID": 37384, "ELEMENT_SET_NO": 999, "REV_AT_EPOCH": 5387, "BSTAR": 0, "MEAN_MOTION_DOT": -1.63e-06, "MEAN_MOTION_DDOT": 0}, "tle": {"line1": "1 37384U 11013A   25354.74542966 -.00000163  00000+0  00000+0 0  9992", "line2": "2 37384  62.1536  41.8403 0035343 187.7861 235.6690  1.00268991 53876"}}, "geometry": {"type": "Point", "coordinates": [-120.12630119032967, -30.32707525170788]}}, {"type": "Feature", "properties": {"norad_id": 37763, "name": "BEIDOU-2 IGSO-4 (C09)", "group": "beidou", "lat": 52.152269581296586, "lon": -126.21338421462104, "alt_km": 36344.10841422402, "timestamp": "2025-12-21T03:56:51.102297+00:00", "meta": {"OBJECT_NAME": "BEIDOU-2 IGSO-4 (C09)", "OBJECT_ID": "2011-038A", "EPOCH": "2025-12-17T23:29:21.564384", "MEAN_MOTION": 1.00281312, "ECCENTRICITY": 0.01493143, "INCLINATION": 54.5836, "RA_OF_ASC_NODE": 167.2999, "ARG_OF_PERICENTER": 230.2426, "MEAN_ANOMALY": 136.1954, "EPHEMERIS_TYPE": 0, "CLASSIFICATION_TYPE": "U", "NORAD_CAT_ID": 37763, "ELEMENT_SET_NO": 999, "REV_AT_EPOCH": 5283, "BSTAR": 0, "MEAN_MOTION_DOT": 6.5e-07, "MEAN_MOTION_DDOT": 0}, "tle": {"line1": "1 37763U 11038A   25351.97872181  .00000065  00000+0  00000+0 0  9997", "line2": "2 37763  54.5836 167.2999 0149314 230.2426 136.1954  1.00281312 52838"}}, "geometry": {"type": "Point", "coordinates": [-126.21338421462104, 52.152269581296586]}}, {"type": "Feature", "properties": {"norad_id": 37948, "name": "BEIDOU-2 IGSO-5 (C10)", "group": "beidou", "lat": -21.79819182751098, "lon": -107.32216817836883, "alt_km": 35922.000987474355, "timestamp": "2025-12-21T03:56:51.102308+00:00", "meta": {"OBJECT_NAME": "BEIDOU-2 IGSO-5 (C10)", "OBJECT_ID": "2011-073A", "EPOCH": "2025-12-20T17:45:23.966208", "MEAN_MOTION": 1.00289634, "ECCENTRICITY": 0.010985, "INCLINATION": 48.0053, "RA_OF_ASC_NODE": 273.7608, "ARG_OF_PERICENTER": 222.3057, "MEAN_ANOMALY": 313.2909, "EPHEMERIS_TYPE": 0, "CLASSIFICATION_TYPE": "U", "NORAD_CAT_ID": 37948, "ELEMENT_SET_NO": 999, "REV_AT_EPOCH": 5134, "BSTAR": 0, "MEAN_MOTION_DOT": -1.51e-06, "MEAN_MOTION_DDOT": 0}, "tle": {"line1": "1 37948U 11073A   25354.73986072 -.00000151  00000+0  00000+0 0  9990", "line2": "2 37948  48.0053 273.7608 0109850 222.3057 313.2909  1.00289634 51343"}}, "geometry": {"type": "Point", "coordinates": [-107.32216817836883, -21.79819182751098]}}, {"type": "Feature", "properties": {"norad_id": 38091, "name": "BEIDOU-2 G5 (C05)", "group": "beidou", "lat": 2.1185651310957794, "lon": -152.14333806038314, "alt_km": 35790.304883071854, "timestamp": "2025-12-21T03:56:51.102319+00:00", "meta": {"OBJECT_NAME": "BEIDOU-2 G5 (C05)", "OBJECT_ID": "2012-008A", "EPOCH": "2025-12-19T16:03:31.750272", "MEAN_MOTION": 1.00268606, "ECCENTRICITY": 0.0012969, "INCLINATION": 3.1258, "RA_OF_ASC_NODE": 70.6861, "ARG_OF_PERICENTER": 231.3522, "MEAN_ANOMALY": 86.1393, "EPHEMERIS_TYPE": 0, "CLASSIFICATION_TYPE": "U", "NORAD_CAT_ID": 38091, "ELEMENT_SET_NO": 999, "REV_AT_EPOCH": 5056, "BSTAR": 0, "MEAN_MOTION_DOT": 7.9e-07, "MEAN_MOTION_DDOT": 0}, "tle": {"line1": "1 38091U 12008A   25353.66911748  .00000079  00000+0  00000+0 0  9996", "line2": "2 38091   3.1258  70.6861 0012969 231.3522  86.1393  1.00268606 50560"}}, "geometry": {"type": "Point", "coordinates": [-152.14333806038314, 2.1185651310957794]}}, {"type": "Feature", "properties": {"norad_id": 38250, "name": "BEIDOU-2 M3 (C11)", "group": "beidou", "lat": 12.877043353845517, "lon": 121.9538548683685, "alt_km": 21550.638151041334, "timestamp": "2025-12-21T03:56:51.102330+00:00", "meta": {"OBJECT_NAME": "BEIDOU-2 M3 (C11)", "OBJECT_ID": "2012-018A", "EPOCH": "2025-12-20T09:09:30.045600", "MEAN_MOTION": 1.86230055, "ECCENTRICITY": 0.0024161, "INCLINATION": 55.9137, "RA_OF_ASC_NODE": 310.9006, "ARG_OF_PERICENTER": 275.0976, "MEAN_ANOMALY": 84.6167, "EPHEMERIS_TYPE": 0, "CLASSIFICATION_TYPE": "U", "NORAD_CAT_ID": 38250, "ELEMENT_SET_NO": 999, "REV_AT_EPOCH": 9261, "BSTAR": 0, "MEAN_MOTION_DOT": -7e-07, "MEAN_MOTION_DDOT": 0}, "tle": {"line1": "1 38250U 12018A   25354.38159775 -.00000070  00000+0  00000+0 0  9990", "line2": "2 38250  55.9137 310.9006 0024161 275.0976  84.6167  1.86230055 92619"}}, "geometry": {"type": "Point", "coordinates": [121.9538548683685, 12.877043353845517]}}, {"type": "Feature", "properties": {"norad_id": 38251, "name": "BEIDOU-2 M4 (C12)", "group": "beidou", "lat": -24.53725574533917, "lon": 148.1373362411502, "alt_km": 21515.650262672676, "timestamp": "2025-12-21T03:56:51.102340+00:00", "meta": {"OBJECT_NAME": "BEIDOU-2 M4 (C12)", "OBJECT_ID": "2012-018B", "EPOCH": "2025-12-19T05:45:13.599936", "MEAN_MOTION": 1.86229684, "ECCENTRICITY": 0.00153935, "INCLINATION": 55.8157, "RA_OF_ASC_NODE": 310.167, "ARG_OF_PERICENTER": 278.4783, "MEAN_ANOMALY": 81.3347, "EPHEMERIS_TYPE": 0, "CLASSIFICATION_TYPE": "U", "NORAD_CAT_ID": 38251, "ELEMENT_SET_NO": 999, "REV_AT_EPOCH": 9259, "BSTAR": 0, "MEAN_MOTION_DOT": -7.8e-07, "MEAN_MOTION_DDOT": 0}, "tle": {"line1": "1 38251U 12018B   25353.23974074 -.00000078  00000+0  00000+0 0  9999", "line2": "2 38251  55.8157 310.1670 0015393 278.4783  81.3347  1.86229684 92597"}}, "geometry": {"type": "Point", "coordinates": [148.1373362411502, -24.53725574533917]}}, {"type": "Feature", "properties": {"norad_id": 38775, "name": "BEIDOU-2 M6 (C14)", "group": "beidou", "lat": 35.61262447988001, "lon": 97.2136081492818, "alt_km": 21508.195676074214, "timestamp": "2025-12-21T03:56:51.102350+00:00", "meta": {"OBJECT_NAME": "BEIDOU-2 M6 (C14)", "OBJECT_ID": "2012-050B", "EPOCH": "2025-12-19T11:42:06.639840", "MEAN_MOTION": 1.86230927, "ECCENTRICITY": 0.0011333, "INCLINATION": 56.384, "RA_OF_ASC_NODE": 68.8435, "ARG_OF_PERICENTER": 343.6526, "MEAN_ANOMALY": 16.3469, "EPHEMERIS_TYPE": 0, "CLASSIFICATION_TYPE": "U", "NORAD_CAT_ID": 38775, "ELEMENT_SET_NO": 999, "REV_AT_EPOCH": 8996, "BSTAR": 0, "MEAN_MOTION_DOT": -5.2e-07, "MEAN_MOTION_DDOT": 0}, "tle": {"line1": "1 38775U 12050B   25353.48757685 -.00000052  00000+0  00000+0 0  9992", "line2": "2 38775  56.3840  68.8435 0011333 343.6526  16.3469  1.86230927 89961"}}, "geometry": {"type": "Point", "coordinates": [97.2136081492818, 35.61262447988001]}}]}